[{"OBJECT_NAME":"GUOWANG GROUP 20 OBJECT J","OBJECT_ID":"2026-047J","EPOCH":"2026-04-01T06:22:39.180000","MEAN_MOTION":13.89173289,"ECCENTRICITY":5.27e-5,"INCLINATION":50.0088,"RA_OF_ASC_NODE":338.8532,"ARG_OF_PERICENTER":278.6893,"MEAN_ANOMALY":81.3945,"EPHEMERIS_TYPE":0,"CLASSIFICATION_TYPE":"U","NORAD_CAT_ID":68137,"ELEMENT_SET_NO":999,"REV_AT_EPOCH":273,"BSTAR":2.3338e-5,"MEAN_MOTION_DOT":-1.17e-6,"MEAN_MOTION_DDOT":0},{"OBJECT_NAME":"CZ-8A R/B","OBJECT_ID":"2026-047K","EPOCH":"2026-04-01T21:30:58.108896","MEAN_MOTION":14.12232418,"ECCENTRICITY":0.0044761,"INCLINATION":49.9536,"RA_OF_ASC_NODE":334.7133,"ARG_OF_PERICENTER":217.9762,"MEAN_ANOMALY":141.7986,"EPHEMERIS_TYPE":0,"CLASSIFICATION_TYPE":"U","NORAD_CAT_ID":68138,"ELEMENT_SET_NO":999,"REV_AT_EPOCH":283,"BSTAR":3.677e-5,"MEAN_MOTION_DOT":-8.6e-7,"MEAN_MOTION_DDOT":0},{"OBJECT_NAME":"SHIYAN-30 03","OBJECT_ID":"2026-048A","EPOCH":"2026-04-01T17:29:46.267872","MEAN_MOTION":14.91751486,"ECCENTRICITY":0.0002686,"INCLINATION":35.0016,"RA_OF_ASC_NODE":5.993,"ARG_OF_PERICENTER":35.1689,"MEAN_ANOMALY":324.9192,"EPHEMERIS_TYPE":0,"CLASSIFICATION_TYPE":"U","NORAD_CAT_ID":68139,"ELEMENT_SET_NO":999,"REV_AT_EPOCH":294,"BSTAR":0.00030263,"MEAN_MOTION_DOT":3.08e-5,"MEAN_MOTION_DDOT":0},{"OBJECT_NAME":"SHIYAN-30 04","OBJECT_ID":"2026-048B","EPOCH":"2026-04-01T17:30:46.188864","MEAN_MOTION":14.91750094,"ECCENTRICITY":0.0001161,"INCLINATION":34.993,"RA_OF_ASC_NODE":5.9922,"ARG_OF_PERICENTER":33.1334,"MEAN_ANOMALY":326.9443,"EPHEMERIS_TYPE":0,"CLASSIFICATION_TYPE":"U","NORAD_CAT_ID":68140,"ELEMENT_SET_NO":999,"REV_AT_EPOCH":294,"BSTAR":0.00028476,"MEAN_MOTION_DOT":2.897e-5,"MEAN_MOTION_DDOT":0},{"OBJECT_NAME":"CZ-2D R/B","OBJECT_ID":"2026-048C","EPOCH":"2026-04-01T21:09:32.215104","MEAN_MOTION":14.95579869,"ECCENTRICITY":0.0015507,"INCLINATION":35.1311,"RA_OF_ASC_NODE":4.758,"ARG_OF_PERICENTER":170.4568,"MEAN_ANOMALY":189.6437,"EPHEMERIS_TYPE":0,"CLASSIFICATION_TYPE":"U","NORAD_CAT_ID":68141,"ELEMENT_SET_NO":999,"REV_AT_EPOCH":297,"BSTAR":0.00017357,"MEAN_MOTION_DOT":1.937e-5,"MEAN_MOTION_DDOT":0},{"OBJECT_NAME":"STARLINK-36604","OBJECT_ID":"2026-049A","EPOCH":"2026-04-01T20:00:01.999008","MEAN_MOTION":15.75259401,"ECCENTRICITY":0.0001488,"INCLINATION":97.2844,"RA_OF_ASC_NODE":112.2362,"ARG_OF_PERICENTER":98.057,"MEAN_ANOMALY":221.6118,"EPHEMERIS_TYPE":0,"CLASSIFICATION_TYPE":"U","NORAD_CAT_ID":68142,"ELEMENT_SET_NO":999,"REV_AT_EPOCH":435,"BSTAR":-0.00089865,"MEAN_MOTION_DOT":-0.00132513,"MEAN_MOTION_DDOT":0},{"OBJECT_NAME":"STARLINK-36995","OBJECT_ID":"2026-049B","EPOCH":"2026-04-01T20:00:01.999008","MEAN_MOTION":15.7514388,"ECCENTRICITY":9.67e-5,"INCLINATION":97.284,"RA_OF_ASC_NODE":112.2466,"ARG_OF_PERICENTER":80.5036,"MEAN_ANOMALY":265.2036,"EPHEMERIS_TYPE":0,"CLASSIFICATION_TYPE":"U","NORAD_CAT_ID":68143,"ELEMENT_SET_NO":999,"REV_AT_EPOCH":434,"BSTAR":0.00017646,"MEAN_MOTION_DOT":0.00026219,"MEAN_MOTION_DDOT":0},{"OBJECT_NAME":"STARLINK-37020","OBJECT_ID":"2026-049C","EPOCH":"2026-04-01T03:15:17.719200","MEAN_MOTION":15.80902457,"ECCENTRICITY":9.33e-5,"INCLINATION":97.2835,"RA_OF_ASC_NODE":111.518,"ARG_OF_PERICENTER":116.1145,"MEAN_ANOMALY":244.0219,"EPHEMERIS_TYPE":0,"CLASSIFICATION_TYPE":"U","NORAD_CAT_ID":68144,"ELEMENT_SET_NO":999,"REV_AT_EPOCH":295,"BSTAR":0.00089883063,"MEAN_MOTION_DOT":0.00176242,"MEAN_MOTION_DDOT":0},{"OBJECT_NAME":"STARLINK-36244","OBJECT_ID":"2026-049D","EPOCH":"2026-04-01T18:52:02.878752","MEAN_MOTION":15.75242474,"ECCENTRICITY":0.0001288,"INCLINATION":97.2844,"RA_OF_ASC_NODE":112.1628,"ARG_OF_PERICENTER":83.5675,"MEAN_ANOMALY":276.5736,"EPHEMERIS_TYPE":0,"CLASSIFICATION_TYPE":"U","NORAD_CAT_ID":68145,"ELEMENT_SET_NO":999,"REV_AT_EPOCH":305,"BSTAR":0.0011659,"MEAN_MOTION_DOT":0.00177844,"MEAN_MOTION_DDOT":0},{"OBJECT_NAME":"STARLINK-36980","OBJECT_ID":"2026-049E","EPOCH":"2026-04-01T19:56:54.422880","MEAN_MOTION":15.80860169,"ECCENTRICITY":0.0001144,"INCLINATION":97.2842,"RA_OF_ASC_NODE":112.2555,"ARG_OF_PERICENTER":106.0631,"MEAN_ANOMALY":254.0763,"EPHEMERIS_TYPE":0,"CLASSIFICATION_TYPE":"U","NORAD_CAT_ID":68146,"ELEMENT_SET_NO":999,"REV_AT_EPOCH":306,"BSTAR":0.00047802,"MEAN_MOTION_DOT":0.00092584,"MEAN_MOTION_DDOT":0},{"OBJECT_NAME":"STARLINK-37055","OBJECT_ID":"2026-049F","EPOCH":"2026-04-01T19:59:04.327008","MEAN_MOTION":15.80877912,"ECCENTRICITY":0.0001932,"INCLINATION":97.284,"RA_OF_ASC_NODE":112.2534,"ARG_OF_PERICENTER":132.6445,"MEAN_ANOMALY":227.4987,"EPHEMERIS_TYPE":0,"CLASSIFICATION_TYPE":"U","NORAD_CAT_ID":68147,"ELEMENT_SET_NO":999,"REV_AT_EPOCH":306,"BSTAR":0.00079797,"MEAN_MOTION_DOT":0.00155913,"MEAN_MOTION_DDOT":0},{"OBJECT_NAME":"STARLINK-36981","OBJECT_ID":"2026-049G","EPOCH":"2026-04-01T19:54:44.448768","MEAN_MOTION":15.80922497,"ECCENTRICITY":0.0001625,"INCLINATION":97.2832,"RA_OF_ASC_NODE":112.2574,"ARG_OF_PERICENTER":118.4739,"MEAN_ANOMALY":241.6694,"EPHEMERIS_TYPE":0,"CLASSIFICATION_TYPE":"U","NORAD_CAT_ID":68148,"ELEMENT_SET_NO":999,"REV_AT_EPOCH":306,"BSTAR":0.001277,"MEAN_MOTION_DOT":0.00252914,"MEAN_MOTION_DDOT":0},{"OBJECT_NAME":"STARLINK-36992","OBJECT_ID":"2026-049H","EPOCH":"2026-04-01T19:53:39.518304","MEAN_MOTION":15.80913771,"ECCENTRICITY":0.00016,"INCLINATION":97.2833,"RA_OF_ASC_NODE":112.2585,"ARG_OF_PERICENTER":112.5207,"MEAN_ANOMALY":247.6231,"EPHEMERIS_TYPE":0,"CLASSIFICATION_TYPE":"U","NORAD_CAT_ID":68149,"ELEMENT_SET_NO":999,"REV_AT_EPOCH":306,"BSTAR":0.0012476,"MEAN_MOTION_DOT":0.00246819,"MEAN_MOTION_DDOT":0},{"OBJECT_NAME":"STARLINK-37060","OBJECT_ID":"2026-049J","EPOCH":"2026-04-01T19:52:34.696704","MEAN_MOTION":15.80880021,"ECCENTRICITY":0.0001756,"INCLINATION":97.2836,"RA_OF_ASC_NODE":112.2593,"ARG_OF_PERICENTER":109.3955,"MEAN_ANOMALY":250.7503,"EPHEMERIS_TYPE":0,"CLASSIFICATION_TYPE":"U","NORAD_CAT_ID":68150,"ELEMENT_SET_NO":999,"REV_AT_EPOCH":306,"BSTAR":0.00082935,"MEAN_MOTION_DOT":0.00162181,"MEAN_MOTION_DDOT":0},{"OBJECT_NAME":"STARLINK-37073","OBJECT_ID":"2026-049K","EPOCH":"2026-04-01T20:00:01.999008","MEAN_MOTION":15.75234422,"ECCENTRICITY":0.0001255,"INCLINATION":97.2835,"RA_OF_ASC_NODE":112.2609,"ARG_OF_PERICENTER":84.9608,"MEAN_ANOMALY":292.7208,"EPHEMERIS_TYPE":0,"CLASSIFICATION_TYPE":"U","NORAD_CAT_ID":68151,"ELEMENT_SET_NO":999,"REV_AT_EPOCH":434,"BSTAR":-0.0009985,"MEAN_MOTION_DOT":-0.00146815,"MEAN_MOTION_DDOT":0},{"OBJECT_NAME":"STARLINK-37049","OBJECT_ID":"2026-049L","EPOCH":"2026-04-01T19:50:23.561376","MEAN_MOTION":15.80810086,"ECCENTRICITY":0.0001857,"INCLINATION":97.2841,"RA_OF_ASC_NODE":112.2622,"ARG_OF_PERICENTER":100.8033,"MEAN_ANOMALY":259.3445,"EPHEMERIS_TYPE":0,"CLASSIFICATION_TYPE":"U","NORAD_CAT_ID":68152,"ELEMENT_SET_NO":999,"REV_AT_EPOCH":306,"BSTAR":-9.7091e-5,"MEAN_MOTION_DOT":-0.00018696,"MEAN_MOTION_DDOT":0},{"OBJECT_NAME":"STARLINK-37072","OBJECT_ID":"2026-049M","EPOCH":"2026-04-01T20:00:01.999008","MEAN_MOTION":15.75243849,"ECCENTRICITY":0.0001212,"INCLINATION":97.2842,"RA_OF_ASC_NODE":112.2525,"ARG_OF_PERICENTER":76.437,"MEAN_ANOMALY":281.2414,"EPHEMERIS_TYPE":0,"CLASSIFICATION_TYPE":"U","NORAD_CAT_ID":68153,"ELEMENT_SET_NO":999,"REV_AT_EPOCH":434,"BSTAR":-0.00096117,"MEAN_MOTION_DOT":-0.00141475,"MEAN_MOTION_DDOT":0}]
